[{"OBJECT_NAME":"STARLINK-30195","OBJECT_ID":"2023-102C","EPOCH":"2026-03-09T22:00:01.999584","MEAN_MOTION":15.08696565,"ECCENTRICITY":0.00017268,"INCLINATION":42.9999,"RA_OF_ASC_NODE":247.4556,"ARG_OF_PERICENTER":286.5195,"MEAN_ANOMALY":40.8805,"EPHEMERIS_TYPE":0,"CLASSIFICATION_TYPE":"U","NORAD_CAT_ID":57406,"ELEMENT_SET_NO":999,"REV_AT_EPOCH":563,"BSTAR":0.005804517,"MEAN_MOTION_DOT":0.00093588,"MEAN_MOTION_DDOT":0},{"OBJECT_NAME":"YAM-8","OBJECT_ID":"2025-052AW","EPOCH":"2026-03-09T17:32:32.161056","MEAN_MOTION":15.10898939,"ECCENTRICITY":0.00023693,"INCLINATION":97.7023,"RA_OF_ASC_NODE":329.5345,"ARG_OF_PERICENTER":152.6796,"MEAN_ANOMALY":207.4558,"EPHEMERIS_TYPE":0,"CLASSIFICATION_TYPE":"U","NORAD_CAT_ID":63254,"ELEMENT_SET_NO":999,"REV_AT_EPOCH":5424,"BSTAR":0.00047267461,"MEAN_MOTION_DOT":7.81e-5,"MEAN_MOTION_DDOT":0}]
